CCSDS_OMM_VERS = 2.0
CREATION_DATE  = 
ORIGINATOR     = 

OBJECT_NAME    = STARLINK-36516
OBJECT_ID      = 2026-008L
CENTER_NAME    = EARTH
REF_FRAME      = TEME
TIME_SYSTEM    = UTC
MEAN_ELEMENT_THEORY = SGP/SGP4

EPOCH          = 2026-02-03T04:00:01.999584
MEAN_MOTION    = 15.67809000
ECCENTRICITY   = .0001023
INCLINATION    = 43.0000
RA_OF_ASC_NODE = 43.0174
ARG_OF_PERICENTER = 255.4101
MEAN_ANOMALY   = 334.0307

EPHEMERIS_TYPE = 0
CLASSIFICATION_TYPE = U
NORAD_CAT_ID   = 67455
ELEMENT_SET_NO = 999
REV_AT_EPOCH   = 424
BSTAR          = -.21182E-1
MEAN_MOTION_DOT = -.2096606E-1
MEAN_MOTION_DDOT = 0

CCSDS_OMM_VERS = 2.0
CREATION_DATE  = 
ORIGINATOR     = 

OBJECT_NAME    = STARLINK-36493
OBJECT_ID      = 2026-008M
CENTER_NAME    = EARTH
REF_FRAME      = TEME
TIME_SYSTEM    = UTC
MEAN_ELEMENT_THEORY = SGP/SGP4

EPOCH          = 2026-02-03T04:00:01.999584
MEAN_MOTION    = 15.68676740
ECCENTRICITY   = .0000938
INCLINATION    = 43.0000
RA_OF_ASC_NODE = 43.0150
ARG_OF_PERICENTER = 265.1436
MEAN_ANOMALY   = 325.1534

EPHEMERIS_TYPE = 0
CLASSIFICATION_TYPE = U
NORAD_CAT_ID   = 67456
ELEMENT_SET_NO = 999
REV_AT_EPOCH   = 424
BSTAR          = -.20583E-1
MEAN_MOTION_DOT = -.2110062E-1
MEAN_MOTION_DDOT = 0

CCSDS_OMM_VERS = 2.0
CREATION_DATE  = 
ORIGINATOR     = 

OBJECT_NAME    = STARLINK-36529
OBJECT_ID      = 2026-008N
CENTER_NAME    = EARTH
REF_FRAME      = TEME
TIME_SYSTEM    = UTC
MEAN_ELEMENT_THEORY = SGP/SGP4

EPOCH          = 2026-02-03T02:57:05.425344
MEAN_MOTION    = 15.74513605
ECCENTRICITY   = .0000578
INCLINATION    = 42.9996
RA_OF_ASC_NODE = 43.2331
ARG_OF_PERICENTER = 277.7709
MEAN_ANOMALY   = 82.3094

EPHEMERIS_TYPE = 0
CLASSIFICATION_TYPE = U
NORAD_CAT_ID   = 67457
ELEMENT_SET_NO = 999
REV_AT_EPOCH   = 425
BSTAR          = -.32628E-2
MEAN_MOTION_DOT = -.464186E-2
MEAN_MOTION_DDOT = 0

CCSDS_OMM_VERS = 2.0
CREATION_DATE  = 
ORIGINATOR     = 

OBJECT_NAME    = STARLINK-36528
OBJECT_ID      = 2026-008P
CENTER_NAME    = EARTH
REF_FRAME      = TEME
TIME_SYSTEM    = UTC
MEAN_ELEMENT_THEORY = SGP/SGP4

EPOCH          = 2026-02-03T02:56:01.394304
MEAN_MOTION    = 15.75068968
ECCENTRICITY   = .0001339
INCLINATION    = 42.9999
RA_OF_ASC_NODE = 43.2274
ARG_OF_PERICENTER = 225.0950
MEAN_ANOMALY   = 134.9811

EPHEMERIS_TYPE = 0
CLASSIFICATION_TYPE = U
NORAD_CAT_ID   = 67458
ELEMENT_SET_NO = 999
REV_AT_EPOCH   = 425
BSTAR          = .17177E-2
MEAN_MOTION_DOT = .272426E-2
MEAN_MOTION_DDOT = 0

CCSDS_OMM_VERS = 2.0
CREATION_DATE  = 
ORIGINATOR     = 

OBJECT_NAME    = STARLINK-36546
OBJECT_ID      = 2026-008Q
CENTER_NAME    = EARTH
REF_FRAME      = TEME
TIME_SYSTEM    = UTC
MEAN_ELEMENT_THEORY = SGP/SGP4

EPOCH          = 2026-02-03T02:55:37.416576
MEAN_MOTION    = 15.74572544
ECCENTRICITY   = .0000668
INCLINATION    = 42.9996
RA_OF_ASC_NODE = 43.2247
ARG_OF_PERICENTER = 274.9640
MEAN_ANOMALY   = 85.1153

EPHEMERIS_TYPE = 0
CLASSIFICATION_TYPE = U
NORAD_CAT_ID   = 67459
ELEMENT_SET_NO = 999
REV_AT_EPOCH   = 425
BSTAR          = -.33949E-2
MEAN_MOTION_DOT = -.483141E-2
MEAN_MOTION_DDOT = 0

CCSDS_OMM_VERS = 2.0
CREATION_DATE  = 
ORIGINATOR     = 

OBJECT_NAME    = STARLINK-36523
OBJECT_ID      = 2026-008R
CENTER_NAME    = EARTH
REF_FRAME      = TEME
TIME_SYSTEM    = UTC
MEAN_ELEMENT_THEORY = SGP/SGP4

EPOCH          = 2026-02-03T02:55:03.998784
MEAN_MOTION    = 15.75037911
ECCENTRICITY   = .0000869
INCLINATION    = 42.9998
RA_OF_ASC_NODE = 43.2215
ARG_OF_PERICENTER = 293.4349
MEAN_ANOMALY   = 66.6428

EPHEMERIS_TYPE = 0
CLASSIFICATION_TYPE = U
NORAD_CAT_ID   = 67460
ELEMENT_SET_NO = 999
REV_AT_EPOCH   = 425
BSTAR          = .52996E-3
MEAN_MOTION_DOT = .81714E-3
MEAN_MOTION_DDOT = 0

CCSDS_OMM_VERS = 2.0
CREATION_DATE  = 
ORIGINATOR     = 

OBJECT_NAME    = STARLINK-36522
OBJECT_ID      = 2026-008S
CENTER_NAME    = EARTH
REF_FRAME      = TEME
TIME_SYSTEM    = UTC
MEAN_ELEMENT_THEORY = SGP/SGP4

EPOCH          = 2026-02-03T04:00:01.999584
MEAN_MOTION    = 15.68197145
ECCENTRICITY   = .0000919
INCLINATION    = 43.0001
RA_OF_ASC_NODE = 42.9917
ARG_OF_PERICENTER = 261.6704
MEAN_ANOMALY   = 337.6007

EPHEMERIS_TYPE = 0
CLASSIFICATION_TYPE = U
NORAD_CAT_ID   = 67461
ELEMENT_SET_NO = 999
REV_AT_EPOCH   = 424
BSTAR          = -.20916E-1
MEAN_MOTION_DOT = -.2102902E-1
MEAN_MOTION_DDOT = 0

CCSDS_OMM_VERS = 2.0
CREATION_DATE  = 
ORIGINATOR     = 

OBJECT_NAME    = STARLINK-36504
OBJECT_ID      = 2026-008T
CENTER_NAME    = EARTH
REF_FRAME      = TEME
TIME_SYSTEM    = UTC
MEAN_ELEMENT_THEORY = SGP/SGP4

EPOCH          = 2026-02-03T02:54:04.794048
MEAN_MOTION    = 15.75058380
ECCENTRICITY   = .000136
INCLINATION    = 42.9999
RA_OF_ASC_NODE = 43.2156
ARG_OF_PERICENTER = 230.4123
MEAN_ANOMALY   = 129.6626

EPHEMERIS_TYPE = 0
CLASSIFICATION_TYPE = U
NORAD_CAT_ID   = 67462
ELEMENT_SET_NO = 999
REV_AT_EPOCH   = 425
BSTAR          = .18696E-2
MEAN_MOTION_DOT = .297316E-2
MEAN_MOTION_DDOT = 0

CCSDS_OMM_VERS = 2.0
CREATION_DATE  = 
ORIGINATOR     = 

OBJECT_NAME    = STARLINK-36505
OBJECT_ID      = 2026-008U
CENTER_NAME    = EARTH
REF_FRAME      = TEME
TIME_SYSTEM    = UTC
MEAN_ELEMENT_THEORY = SGP/SGP4

EPOCH          = 2026-02-03T02:53:35.767968
MEAN_MOTION    = 15.75095158
ECCENTRICITY   = .0001116
INCLINATION    = 42.9997
RA_OF_ASC_NODE = 43.2135
ARG_OF_PERICENTER = 282.5023
MEAN_ANOMALY   = 77.5721

EPHEMERIS_TYPE = 0
CLASSIFICATION_TYPE = U
NORAD_CAT_ID   = 67463
ELEMENT_SET_NO = 999
REV_AT_EPOCH   = 425
BSTAR          = .11229E-2
MEAN_MOTION_DOT = .176089E-2
MEAN_MOTION_DDOT = 0

CCSDS_OMM_VERS = 2.0
CREATION_DATE  = 
ORIGINATOR     = 

OBJECT_NAME    = STARLINK-36421
OBJECT_ID      = 2026-008V
CENTER_NAME    = EARTH
REF_FRAME      = TEME
TIME_SYSTEM    = UTC
MEAN_ELEMENT_THEORY = SGP/SGP4

EPOCH          = 2026-02-03T04:00:01.999584
MEAN_MOTION    = 15.68070609
ECCENTRICITY   = .0001039
INCLINATION    = 43.0000
RA_OF_ASC_NODE = 42.9793
ARG_OF_PERICENTER = 256.1723
MEAN_ANOMALY   = 348.1688

EPHEMERIS_TYPE = 0
CLASSIFICATION_TYPE = U
NORAD_CAT_ID   = 67464
ELEMENT_SET_NO = 999
REV_AT_EPOCH   = 424
BSTAR          = -.20968E-1
MEAN_MOTION_DOT = -.2097868E-1
MEAN_MOTION_DDOT = 0

CCSDS_OMM_VERS = 2.0
CREATION_DATE  = 
ORIGINATOR     = 

OBJECT_NAME    = STARLINK-36437
OBJECT_ID      = 2026-008W
CENTER_NAME    = EARTH
REF_FRAME      = TEME
TIME_SYSTEM    = UTC
MEAN_ELEMENT_THEORY = SGP/SGP4

EPOCH          = 2026-02-03T02:52:37.383168
MEAN_MOTION    = 15.75084476
ECCENTRICITY   = .0001474
INCLINATION    = 42.9996
RA_OF_ASC_NODE = 43.2070
ARG_OF_PERICENTER = 254.5324
MEAN_ANOMALY   = 105.5383

EPHEMERIS_TYPE = 0
CLASSIFICATION_TYPE = U
NORAD_CAT_ID   = 67465
ELEMENT_SET_NO = 999
REV_AT_EPOCH   = 425
BSTAR          = .11433E-2
MEAN_MOTION_DOT = .179277E-2
MEAN_MOTION_DDOT = 0

CCSDS_OMM_VERS = 2.0
CREATION_DATE  = 
ORIGINATOR     = 

OBJECT_NAME    = STARLINK-36520
OBJECT_ID      = 2026-008X
CENTER_NAME    = EARTH
REF_FRAME      = TEME
TIME_SYSTEM    = UTC
MEAN_ELEMENT_THEORY = SGP/SGP4

EPOCH          = 2026-02-03T04:00:01.999584
MEAN_MOTION    = 15.72556214
ECCENTRICITY   = .000108
INCLINATION    = 42.9994
RA_OF_ASC_NODE = 42.9263
ARG_OF_PERICENTER = 253.3623
MEAN_ANOMALY   = 11.8492

EPHEMERIS_TYPE = 0
CLASSIFICATION_TYPE = U
NORAD_CAT_ID   = 67466
ELEMENT_SET_NO = 999
REV_AT_EPOCH   = 424
BSTAR          = -.17353E-1
MEAN_MOTION_DOT = -.2099066E-1
MEAN_MOTION_DDOT = 0

CCSDS_OMM_VERS = 2.0
CREATION_DATE  = 
ORIGINATOR     = 

OBJECT_NAME    = STARLINK-36425
OBJECT_ID      = 2026-008Y
CENTER_NAME    = EARTH
REF_FRAME      = TEME
TIME_SYSTEM    = UTC
MEAN_ELEMENT_THEORY = SGP/SGP4

EPOCH          = 2026-02-03T04:00:01.999584
MEAN_MOTION    = 15.64395399
ECCENTRICITY   = .0000887
INCLINATION    = 42.9996
RA_OF_ASC_NODE = 43.0280
ARG_OF_PERICENTER = 264.1705
MEAN_ANOMALY   = 320.0243

EPHEMERIS_TYPE = 0
CLASSIFICATION_TYPE = U
NORAD_CAT_ID   = 67467
ELEMENT_SET_NO = 999
REV_AT_EPOCH   = 424
BSTAR          = -.24109E-1
MEAN_MOTION_DOT = -.2078684E-1
MEAN_MOTION_DDOT = 0

CCSDS_OMM_VERS = 2.0
CREATION_DATE  = 
ORIGINATOR     = 

OBJECT_NAME    = STARLINK-36414
OBJECT_ID      = 2026-008Z
CENTER_NAME    = EARTH
REF_FRAME      = TEME
TIME_SYSTEM    = UTC
MEAN_ELEMENT_THEORY = SGP/SGP4

EPOCH          = 2026-02-03T04:00:01.999584
MEAN_MOTION    = 15.70783270
ECCENTRICITY   = .0001334
INCLINATION    = 43.0002
RA_OF_ASC_NODE = 42.6628
ARG_OF_PERICENTER = 272.6727
MEAN_ANOMALY   = 97.8868

EPHEMERIS_TYPE = 0
CLASSIFICATION_TYPE = U
NORAD_CAT_ID   = 67468
ELEMENT_SET_NO = 999
REV_AT_EPOCH   = 424
BSTAR          = -.18777E-1
MEAN_MOTION_DOT = -.2104662E-1
MEAN_MOTION_DDOT = 0

CCSDS_OMM_VERS = 2.0
CREATION_DATE  = 
ORIGINATOR     = 

OBJECT_NAME    = STARLINK-36441
OBJECT_ID      = 2026-008AA
CENTER_NAME    = EARTH
REF_FRAME      = TEME
TIME_SYSTEM    = UTC
MEAN_ELEMENT_THEORY = SGP/SGP4

EPOCH          = 2026-02-03T04:00:01.999584
MEAN_MOTION    = 15.67546786
ECCENTRICITY   = .0001241
INCLINATION    = 43.0000
RA_OF_ASC_NODE = 42.6893
ARG_OF_PERICENTER = 267.5069
MEAN_ANOMALY   = 91.5790

EPHEMERIS_TYPE = 0
CLASSIFICATION_TYPE = U
NORAD_CAT_ID   = 67469
ELEMENT_SET_NO = 999
REV_AT_EPOCH   = 424
BSTAR          = -.21549E-1
MEAN_MOTION_DOT = -.2108399E-1
MEAN_MOTION_DDOT = 0

